{"type": "FeatureCollection", "features": [ {"type": "Feature", "properties": {"norad_id": 34833, "name": "IRIDIUM 33 DEB", "group": "iridium-33-debris", "lat": 9.48062233945751, "lon": -127.30792421182046, "alt_km": 711.1146597809684, "timestamp": "2025-12-07T09:35:10.174712+00:00", "meta": {"OBJECT_NAME": "IRIDIUM 33 DEB", "OBJECT_ID": "1997-051MH", "EPOCH": "2025-12-06T11:24:24.044256", "MEAN_MOTION": 14.52319151, "ECCENTRICITY": 0.00217012, "INCLINATION": 86.3936, "RA_OF_ASC_NODE": 53.6936, "ARG_OF_PERICENTER": 117.7437, "MEAN_ANOMALY": 263.768, "EPHEMERIS_TYPE": 0, "CLASSIFICATION_TYPE": "U", "NORAD_CAT_ID": 34833, "ELEMENT_SET_NO": 999, "REV_AT_EPOCH": 87624, "BSTAR": 0.001502325, "MEAN_MOTION_DOT": 6.148e-05, "MEAN_MOTION_DDOT": 0}, "tle": {"line1": "1 34833U 97051MH  25340.47527829  .00006148  00000+0  15023-2 0  9992", "line2": "2 34833  86.3936  53.6936 0021701 117.7437 263.7680 14.52319151876242"}}, "geometry": {"type": "Point", "coordinates": [-127.30792421182046, 9.48062233945751]}}, {"type": "Feature", "properties": {"norad_id": 34870, "name": "IRIDIUM 33 DEB", "group": "iridium-33-debris", "lat": 41.39485961955824, "lon": -40.2098346115298, "alt_km": 648.149293254035, "timestamp": "2025-12-07T09:35:10.174724+00:00", "meta": {"OBJECT_NAME": "IRIDIUM 33 DEB", "OBJECT_ID": "1997-051MQ", "EPOCH": "2025-12-06T22:08:41.908992", "MEAN_MOTION": 14.76249471, "ECCENTRICITY": 0.0015404, "INCLINATION": 86.3105, "RA_OF_ASC_NODE": 316.7478, "ARG_OF_PERICENTER": 204.1366, "MEAN_ANOMALY": 185.6488, "EPHEMERIS_TYPE": 0, "CLASSIFICATION_TYPE": "U", "NORAD_CAT_ID": 34870, "ELEMENT_SET_NO": 999, "REV_AT_EPOCH": 88825, "BSTAR": 0.0023310251, "MEAN_MOTION_DOT": 0.00016214, "MEAN_MOTION_DDOT": 0}, "tle": {"line1": "1 34870U 97051MQ  25340.92270728  .00016214  00000+0  23310-2 0  9999", "line2": "2 34870  86.3105 316.7478 0015404 204.1366 185.6488 14.76249471888255"}}, "geometry": {"type": "Point", "coordinates": [-40.2098346115298, 41.39485961955824]}}, {"type": "Feature", "properties": {"norad_id": 34896, "name": "IRIDIUM 33 DEB", "group": "iridium-33-debris", "lat": 76.24035059822897, "lon": -15.71526819329968, "alt_km": 681.6823087698303, "timestamp": "2025-12-07T09:35:10.174737+00:00", "meta": {"OBJECT_NAME": "IRIDIUM 33 DEB", "OBJECT_ID": "1997-051MY", "EPOCH": "2025-12-05T17:05:39.506784", "MEAN_MOTION": 14.66165825, "ECCENTRICITY": 0.00238087, "INCLINATION": 86.3279, "RA_OF_ASC_NODE": 329.8372, "ARG_OF_PERICENTER": 240.6117, "MEAN_ANOMALY": 296.7708, "EPHEMERIS_TYPE": 0, "CLASSIFICATION_TYPE": "U", "NORAD_CAT_ID": 34896, "ELEMENT_SET_NO": 999, "REV_AT_EPOCH": 87516, "BSTAR": 0.001793551, "MEAN_MOTION_DOT": 9.929e-05, "MEAN_MOTION_DDOT": 0}, "tle": {"line1": "1 34896U 97051MY  25339.71226281  .00009929  00000+0  17936-2 0  9999", "line2": "2 34896  86.3279 329.8372 0023808 240.6117 296.7708 14.66165825875163"}}, "geometry": {"type": "Point", "coordinates": [-15.71526819329968, 76.24035059822897]}}, {"type": "Feature", "properties": {"norad_id": 34926, "name": "IRIDIUM 33 DEB", "group": "iridium-33-debris", "lat": 34.693542700781926, "lon": 13.434091941579403, "alt_km": 704.0446594921568, "timestamp": "2025-12-07T09:35:10.174748+00:00", "meta": {"OBJECT_NAME": "IRIDIUM 33 DEB", "OBJECT_ID": "1997-051NF", "EPOCH": "2025-12-06T20:46:22.255104", "MEAN_MOTION": 14.54012124, "ECCENTRICITY": 0.00763819, "INCLINATION": 86.1315, "RA_OF_ASC_NODE": 10.9966, "ARG_OF_PERICENTER": 312.8142, "MEAN_ANOMALY": 168.3401, "EPHEMERIS_TYPE": 0, "CLASSIFICATION_TYPE": "U", "NORAD_CAT_ID": 34926, "ELEMENT_SET_NO": 999, "REV_AT_EPOCH": 86371, "BSTAR": 0.0091084702, "MEAN_MOTION_DOT": 0.00040121, "MEAN_MOTION_DDOT": 0}, "tle": {"line1": "1 34926U 97051NF  25340.86553536  .00040121  00000+0  91085-2 0  9993", "line2": "2 34926  86.1315  10.9966 0076381 312.8142 168.3401 14.54012124863719"}}, "geometry": {"type": "Point", "coordinates": [13.434091941579403, 34.693542700781926]}}, {"type": "Feature", "properties": {"norad_id": 34985, "name": "IRIDIUM 33 DEB", "group": "iridium-33-debris", "lat": 33.725950252071286, "lon": 61.58668756121226, "alt_km": 762.993655353449, "timestamp": "2025-12-07T09:35:10.174758+00:00", "meta": {"OBJECT_NAME": "IRIDIUM 33 DEB", "OBJECT_ID": "1997-051NR", "EPOCH": "2025-12-06T11:52:01.102944", "MEAN_MOTION": 14.41968492, "ECCENTRICITY": 0.00201435, "INCLINATION": 86.3705, "RA_OF_ASC_NODE": 59.544, "ARG_OF_PERICENTER": 241.43, "MEAN_ANOMALY": 137.5894, "EPHEMERIS_TYPE": 0, "CLASSIFICATION_TYPE": "U", "NORAD_CAT_ID": 34985, "ELEMENT_SET_NO": 999, "REV_AT_EPOCH": 87085, "BSTAR": 0.0014027, "MEAN_MOTION_DOT": 4.627e-05, "MEAN_MOTION_DDOT": 0}, "tle": {"line1": "1 34985U 97051NR  25340.49445721  .00004627  00000+0  14027-2 0  9995", "line2": "2 34985  86.3705  59.5440 0020143 241.4300 137.5894 14.41968492870854"}}, "geometry": {"type": "Point", "coordinates": [61.58668756121226, 33.725950252071286]}}, {"type": "Feature", "properties": {"norad_id": 35051, "name": "IRIDIUM 33 DEB", "group": "iridium-33-debris", "lat": -39.394768940973016, "lon": -165.78408084374482, "alt_km": 743.3724109479253, "timestamp": "2025-12-07T09:35:10.174768+00:00", "meta": {"OBJECT_NAME": "IRIDIUM 33 DEB", "OBJECT_ID": "1997-051NX", "EPOCH": "2025-12-05T08:27:53.565120", "MEAN_MOTION": 14.47546386, "ECCENTRICITY": 0.00106363, "INCLINATION": 86.3242, "RA_OF_ASC_NODE": 12.0813, "ARG_OF_PERICENTER": 111.2483, "MEAN_ANOMALY": 248.9857, "EPHEMERIS_TYPE": 0, "CLASSIFICATION_TYPE": "U", "NORAD_CAT_ID": 35051, "ELEMENT_SET_NO": 999, "REV_AT_EPOCH": 86889, "BSTAR": 0.0012192117, "MEAN_MOTION_DOT": 4.506e-05, "MEAN_MOTION_DDOT": 0}, "tle": {"line1": "1 35051U 97051NX  25339.35270330  .00004506  00000+0  12192-2 0  9992", "line2": "2 35051  86.3242  12.0813 0010636 111.2483 248.9857 14.47546386868892"}}, "geometry": {"type": "Point", "coordinates": [-165.78408084374482, -39.394768940973016]}}, {"type": "Feature", "properties": {"norad_id": 35052, "name": "IRIDIUM 33 DEB", "group": "iridium-33-debris", "lat": -3.2314365686708535, "lon": -157.02672619642857, "alt_km": 765.861667401342, "timestamp": "2025-12-07T09:35:10.174778+00:00", "meta": {"OBJECT_NAME": "IRIDIUM 33 DEB", "OBJECT_ID": "1997-051NY", "EPOCH": "2025-12-06T21:03:09.234144", "MEAN_MOTION": 14.38481992, "ECCENTRICITY": 0.00136664, "INCLINATION": 86.3314, "RA_OF_ASC_NODE": 22.9895, "ARG_OF_PERICENTER": 101.3491, "MEAN_ANOMALY": 258.9243, "EPHEMERIS_TYPE": 0, "CLASSIFICATION_TYPE": "U", "NORAD_CAT_ID": 35052, "ELEMENT_SET_NO": 999, "REV_AT_EPOCH": 87191, "BSTAR": 0.00033598786, "MEAN_MOTION_DOT": 1.046e-05, "MEAN_MOTION_DDOT": 0}, "tle": {"line1": "1 35052U 97051NY  25340.87719021  .00001046  00000+0  33599-3 0  9998", "line2": "2 35052  86.3314  22.9895 0013666 101.3491 258.9243 14.38481992871916"}}, "geometry": {"type": "Point", "coordinates": [-157.02672619642857, -3.2314365686708535]}}, {"type": "Feature", "properties": {"norad_id": 35080, "name": "IRIDIUM 33 DEB", "group": "iridium-33-debris", "lat": 5.353674685451671, "lon": -125.42963375316826, "alt_km": 575.6885441536388, "timestamp": "2025-12-07T09:35:10.174788+00:00", "meta": {"OBJECT_NAME": "IRIDIUM 33 DEB", "OBJECT_ID": "1997-051PF", "EPOCH": "2025-12-06T11:46:33.494016", "MEAN_MOTION": 14.84861675, "ECCENTRICITY": 0.00624075, "INCLINATION": 86.2064, "RA_OF_ASC_NODE": 55.3603, "ARG_OF_PERICENTER": 201.0801, "MEAN_ANOMALY": 158.785, "EPHEMERIS_TYPE": 0, "CLASSIFICATION_TYPE": "U", "NORAD_CAT_ID": 35080, "ELEMENT_SET_NO": 999, "REV_AT_EPOCH": 69595, "BSTAR": 0.014220361, "MEAN_MOTION_DOT": 0.00127174, "MEAN_MOTION_DDOT": 0}, "tle": {"line1": "1 35080U 97051PF  25340.49066544  .00127174  00000+0  14220-1 0  9991", "line2": "2 35080  86.2064  55.3603 0062407 201.0801 158.7850 14.84861675695955"}}, "geometry": {"type": "Point", "coordinates": [-125.42963375316826, 5.353674685451671]}}, {"type": "Feature", "properties": {"norad_id": 35297, "name": "IRIDIUM 33 DEB", "group": "iridium-33-debris", "lat": -37.73935586182726, "lon": 62.23585186395295, "alt_km": 759.8665913673658, "timestamp": "2025-12-07T09:35:10.174798+00:00", "meta": {"OBJECT_NAME": "IRIDIUM 33 DEB", "OBJECT_ID": "1997-051PM", "EPOCH": "2025-12-06T00:31:29.302752", "MEAN_MOTION": 14.45108459, "ECCENTRICITY": 0.00170329, "INCLINATION": 86.3867, "RA_OF_ASC_NODE": 65.6268, "ARG_OF_PERICENTER": 161.2449, "MEAN_ANOMALY": 198.9384, "EPHEMERIS_TYPE": 0, "CLASSIFICATION_TYPE": "U", "NORAD_CAT_ID": 35297, "ELEMENT_SET_NO": 999, "REV_AT_EPOCH": 70329, "BSTAR": 0.0012426888, "MEAN_MOTION_DOT": 4.371e-05, "MEAN_MOTION_DDOT": 0}, "tle": {"line1": "1 35297U 97051PM  25340.02186693  .00004371  00000+0  12427-2 0  9999", "line2": "2 35297  86.3867  65.6268 0017032 161.2449 198.9384 14.45108459703293"}}, "geometry": {"type": "Point", "coordinates": [62.23585186395295, -37.73935586182726]}}, {"type": "Feature", "properties": {"norad_id": 35299, "name": "IRIDIUM 33 DEB", "group": "iridium-33-debris", "lat": -22.925668728124514, "lon": 33.9380718235082, "alt_km": 794.3169388467222, "timestamp": "2025-12-07T09:35:10.174808+00:00", "meta": {"OBJECT_NAME": "IRIDIUM 33 DEB", "OBJECT_ID": "1997-051PP", "EPOCH": "2025-12-06T14:24:15.119136", "MEAN_MOTION": 14.40815495, "ECCENTRICITY": 0.0058804, "INCLINATION": 86.2886, "RA_OF_ASC_NODE": 35.859, "ARG_OF_PERICENTER": 121.9037, "MEAN_ANOMALY": 32.622, "EPHEMERIS_TYPE": 0, "CLASSIFICATION_TYPE": "U", "NORAD_CAT_ID": 35299, "ELEMENT_SET_NO": 999, "REV_AT_EPOCH": 86242, "BSTAR": 0.0014232955, "MEAN_MOTION_DOT": 4.671e-05, "MEAN_MOTION_DDOT": 0}, "tle": {"line1": "1 35299U 97051PP  25340.60017499  .00004671  00000+0  14233-2 0  9992", "line2": "2 35299  86.2886  35.8590 0058804 121.9037  32.6220 14.40815495862424"}}, "geometry": {"type": "Point", "coordinates": [33.9380718235082, -22.925668728124514]}}]}